SHIJIAN-28 (SJ-28)      
1 66549U 25277A   25353.85342914 -.00000330  00000+0  00000+0 0  9992
2 66549   5.0011 274.8456 0001035 136.7763 101.1297  1.00268445   356
CZ-7A R/B               
1 66550U 25277B   25352.37136449  .02663280  14058-5  30391-2 0  9997
2 66550  14.3533 266.9093 6879086 194.6822 125.1782  2.88841840   508
USA 568                 
1 66551U 24134K   25336.66670139 -.01709685  00000+0 -74303-2 0  9990
2 66551  53.1571 236.7807 0000717 110.7411 313.9012 15.87051116  2624
GLOBAL-33               
1 66554U 25267A   25353.38018980  .00007695  00000+0  25464-3 0  9993
2 66554  42.0217  18.6576 0003622 135.9211 224.1916 15.31600421  4420
ELECTRON KICK STAGE R/B 
1 66555U 25267B   25353.75340288  .00017365  00000+0  53717-3 0  9991
2 66555  42.0196  16.2602 0006835 110.4323 249.7249 15.33128579  4481
STARLINK-35699          
1 66557U 25268A   25353.55006541  .00056051  00000+0  95065-3 0  9990
2 66557  43.0009  81.3713 0002216  38.1148 321.9869 15.50689057  5689
STARLINK-35695          
1 66558U 25268B   25353.54972083  .00166863  00000+0  27699-2 0  9993
2 66558  43.0025  81.3711 0002483 320.1959  39.8719 15.50780077  5689
STARLINK-35419          
1 66559U 25268C   25353.93581400 -.00039954  00000+0 -67411-3 0  9995
2 66559  42.9997  79.1074 0008647 182.2061 177.8763 15.50718782  5745
STARLINK-35411          
1 66560U 25268D   25353.93547102 -.00052460  00000+0 -88914-3 0  9996
2 66560  42.9991  79.1048 0008482 181.8382 178.2449 15.50696148  5747
STARLINK-35305          
1 66561U 25268E   25353.93473399  .00061917  00000+0  10423-2 0  9997
2 66561  42.9991  79.0994 0017554 224.6244 135.3204 15.50693186  5742
STARLINK-35579          
1 66562U 25268F   25353.93508015  .00085121  00000+0  14298-2 0  9999
2 66562  43.0012  79.0997 0015628 221.7694 138.1974 15.50667537  5745
STARLINK-35437          
1 66563U 25268G   25353.93440491  .00004977  00000+0  90047-4 0  9991
2 66563  42.9994  79.0955 0017461 223.4436 136.5048 15.50635753  5746
